{
  "norad_id": 68989,
  "name": "CAS500-2 RIDESHARE OBJECT K",
  "history": [
    {
      "epoch": "2026-05-09T15:24:28.317024Z",
      "apogee_km": 598.8012296827201,
      "perigee_km": 592.5596630682148,
      "latitude_deg": -7.566626306632174e-05,
      "longitude_deg": -70.77432220152083,
      "height_km": 599.1299599195918,
      "semi_major_axis_km": 6973.817446375468,
      "eccentricity": 0.0004475,
      "inclination_deg": 97.7431,
      "raan_deg": 27.8003,
      "arg_perigee_deg": 262.5716,
      "mean_anomaly_deg": 97.4993,
      "mean_motion_rev_day": 14.90722821
    }
  ]
}