CAS500-2 RIDESHARE OBJE*
1 68989U 26100K   26129.64199441  .00001319  00000+0  13997-3 0  9992
2 68989  97.7431  27.8003 0004475 262.5716  97.4993 14.90722821   953
